start=new Date('2022-09-22T00:00:00.000Z').valueOf();
sats=[{"EPOCH":"2022-09-21T22:00:00.999936","PERIOD":"95.437","LAUNCH_DATE":"2022-06-17","MEAN_ANOMALY":"353.3938","SEMIMAJOR_AXIS":"6917.869","MEAN_ELEMENT_THEORY":"SGP4","COUNTRY_CODE":"US","INCLINATION":"53.2157","MEAN_MOTION_DOT":"-0.00019161","CENTER_NAME":"EARTH","RA_OF_ASC_NODE":"311.9054","NORAD_CAT_ID":"52834","FILE":"3579752","MEAN_MOTION":"15.08843879","REF_FRAME":"TEME","EPHEMERIS_TYPE":"0","REV_AT_EPOCH":"130","TLE_LINE1":"1 52834U 22062E   22264.91667824 -.00019161  00000-0 -11889-2 0  9992","ECCENTRICITY":"0.00014940","MEAN_MOTION_DDOT":"0.0000000000000","APOAPSIS":"540.767","OBJECT_TYPE":"PAYLOAD","RCS_SIZE":"LARGE","SITE":"AFETR","TIME_SYSTEM":"UTC","ELEMENT_SET_NO":"999","TLE_LINE2":"2 52834  53.2157 311.9054 0001494  59.5207 353.3938 15.08843879  1307","GP_ID":"213194321","OBJECT_ID":"2022-062E","ARG_OF_PERICENTER":"59.5207","BSTAR":"-0.00118890000000","CLASSIFICATION_TYPE":"U","DECAY_DATE":null,"OBJECT_NAME":"STARLINK-4108","PERIAPSIS":"538.700"},{"TLE_LINE2":"2 52835  53.2169 311.9095 0001834  54.3298  18.4856 15.08828466  1300","ELEMENT_SET_NO":"999","TIME_SYSTEM":"UTC","SITE":"AFETR","RCS_SIZE":"LARGE","OBJECT_TYPE":"PAYLOAD","PERIAPSIS":"538.512","DECAY_DATE":null,"OBJECT_NAME":"STARLINK-4080","CLASSIFICATION_TYPE":"U","OBJECT_ID":"2022-062F","GP_ID":"213193525","BSTAR":"0.00124990000000","ARG_OF_PERICENTER":"54.3298","REF_FRAME":"TEME","EPHEMERIS_TYPE":"0","RA_OF_ASC_NODE":"311.9095","CENTER_NAME":"EARTH","MEAN_MOTION_DOT":"0.00019654","FILE":"3579752","NORAD_CAT_ID":"52835","MEAN_MOTION":"15.08828466","SEMIMAJOR_AXIS":"6917.916","MEAN_ELEMENT_THEORY":"SGP4","MEAN_ANOMALY":"18.4856","INCLINATION":"53.2169","COUNTRY_CODE":"US","EPOCH":"2022-09-21T22:00:00.999936","PERIOD":"95.438","LAUNCH_DATE":"2022-06-17","APOAPSIS":"541.049","ECCENTRICITY":"0.00018340","REV_AT_EPOCH":"130","TLE_LINE1":"1 52835U 22062F   22264.91667824  .00019654  00000-0  12499-2 0  9996","MEAN_MOTION_DDOT":"0.0000000000000"},{"PERIAPSIS":"538.628","DECAY_DATE":null,"CLASSIFICATION_TYPE":"U","OBJECT_NAME":"STARLINK-4043","GP_ID":"213193630","OBJECT_ID":"2022-062G","ARG_OF_PERICENTER":"46.6195","BSTAR":"0.00129070000000","TLE_LINE2":"2 52836  53.2176 311.9114 0001656  46.6195  46.2532 15.08830898  1305","TIME_SYSTEM":"UTC","SITE":"AFETR","ELEMENT_SET_NO":"999","RCS_SIZE":"LARGE","OBJECT_TYPE":"PAYLOAD","APOAPSIS":"540.919","TLE_LINE1":"1 52836U 22062G   22264.91667824  .00020308  00000-0  12907-2 0  9999","REV_AT_EPOCH":"130","ECCENTRICITY":"0.00016560","MEAN_MOTION_DDOT":"0.0000000000000","REF_FRAME":"TEME","EPHEMERIS_TYPE":"0","MEAN_MOTION_DOT":"0.00020308","CENTER_NAME":"EARTH","RA_OF_ASC_NODE":"311.9114","FILE":"3579752","NORAD_CAT_ID":"52836","MEAN_MOTION":"15.08830898","SEMIMAJOR_AXIS":"6917.908","MEAN_ELEMENT_THEORY":"SGP4","MEAN_ANOMALY":"46.2532","COUNTRY_CODE":"US","INCLINATION":"53.2176","PERIOD":"95.438","EPOCH":"2022-09-21T22:00:00.999936","LAUNCH_DATE":"2022-06-17"},{"TLE_LINE2":"2 52837  53.2170 311.9160 0002043  36.2786  96.6023 15.08827527  1302","ELEMENT_SET_NO":"999","SITE":"AFETR","TIME_SYSTEM":"UTC","RCS_SIZE":"LARGE","OBJECT_TYPE":"PAYLOAD","PERIAPSIS":"538.370","CLASSIFICATION_TYPE":"U","DECAY_DATE":null,"OBJECT_NAME":"STARLINK-4036","BSTAR":"0.00129210000000","ARG_OF_PERICENTER":"36.2786","OBJECT_ID":"2022-062H","GP_ID":"213193789","EPHEMERIS_TYPE":"0","REF_FRAME":"TEME","FILE":"3579752","NORAD_CAT_ID":"52837","MEAN_MOTION":"15.08827527","RA_OF_ASC_NODE":"311.9160","CENTER_NAME":"EARTH","MEAN_MOTION_DOT":"0.00020329","INCLINATION":"53.2170","COUNTRY_CODE":"US","MEAN_ANOMALY":"96.6023","SEMIMAJOR_AXIS":"6917.919","MEAN_ELEMENT_THEORY":"SGP4","LAUNCH_DATE":"2022-06-17","EPOCH":"2022-09-21T22:00:00.999936","PERIOD":"95.438","APOAPSIS":"541.197","MEAN_MOTION_DDOT":"0.0000000000000","ECCENTRICITY":"0.00020430","REV_AT_EPOCH":"130","TLE_LINE1":"1 52837U 22062H   22264.91667824  .00020329  00000-0  12921-2 0  9999"},{"OBJECT_TYPE":"PAYLOAD","RCS_SIZE":"LARGE","ELEMENT_SET_NO":"999","SITE":"AFETR","TIME_SYSTEM":"UTC","TLE_LINE2":"2 52838  53.2176 311.9113 0001340  69.4242  38.2883 15.08820990  1304","OBJECT_ID":"2022-062J","GP_ID":"213194100","BSTAR":"-0.00005023800000","ARG_OF_PERICENTER":"69.4242","DECAY_DATE":null,"CLASSIFICATION_TYPE":"U","OBJECT_NAME":"STARLINK-4092","PERIAPSIS":"538.876","EPOCH":"2022-09-21T22:00:00.999936","PERIOD":"95.439","LAUNCH_DATE":"2022-06-17","MEAN_ANOMALY":"38.2883","SEMIMAJOR_AXIS":"6917.938","MEAN_ELEMENT_THEORY":"SGP4","INCLINATION":"53.2176","COUNTRY_CODE":"US","RA_OF_ASC_NODE":"311.9113","CENTER_NAME":"EARTH","MEAN_MOTION_DOT":"-0.00001087","MEAN_MOTION":"15.08820990","FILE":"3579752","NORAD_CAT_ID":"52838","REF_FRAME":"TEME","EPHEMERIS_TYPE":"0","ECCENTRICITY":"0.00013400","TLE_LINE1":"1 52838U 22062J   22264.91667824 -.00001087  00000-0 -50238-4 0  9997","REV_AT_EPOCH":"130","MEAN_MOTION_DDOT":"0.0000000000000","APOAPSIS":"540.730"},{"LAUNCH_DATE":"2022-06-17","PERIOD":"95.438","EPOCH":"2022-09-21T22:00:00.999936","INCLINATION":"53.2195","COUNTRY_CODE":"US","SEMIMAJOR_AXIS":"6917.920","MEAN_ANOMALY":"135.0915","MEAN_ELEMENT_THEORY":"SGP4","MEAN_MOTION":"15.08827135","FILE":"3579752","NORAD_CAT_ID":"52839","RA_OF_ASC_NODE":"311.9067","MEAN_MOTION_DOT":"0.00020444","CENTER_NAME":"EARTH","EPHEMERIS_TYPE":"0","REF_FRAME":"TEME","MEAN_MOTION_DDOT":"0.0000000000000","ECCENTRICITY":"0.00020700","TLE_LINE1":"1 52839U 22062K   22264.91667824  .00020444  00000-0  12993-2 0  9998","REV_AT_EPOCH":"130","APOAPSIS":"541.217","OBJECT_TYPE":"PAYLOAD","RCS_SIZE":"LARGE","ELEMENT_SET_NO":"999","TIME_SYSTEM":"UTC","SITE":"AFETR","TLE_LINE2":"2 52839  53.2195 311.9067 0002070  37.7639 135.0915 15.08827135  1303","BSTAR":"0.00129930000000","ARG_OF_PERICENTER":"37.7639","OBJECT_ID":"2022-062K","GP_ID":"213193940","DECAY_DATE":null,"OBJECT_NAME":"STARLINK-4048","CLASSIFICATION_TYPE":"U","PERIAPSIS":"538.353"},{"GP_ID":"213193214","OBJECT_ID":"2022-062L","ARG_OF_PERICENTER":"43.9422","BSTAR":"0.00127720000000","DECAY_DATE":null,"CLASSIFICATION_TYPE":"U","OBJECT_NAME":"STARLINK-4049","PERIAPSIS":"538.548","OBJECT_TYPE":"PAYLOAD","RCS_SIZE":"LARGE","TIME_SYSTEM":"UTC","SITE":"AFETR","ELEMENT_SET_NO":"999","TLE_LINE2":"2 52840  53.2192 311.9079 0001838  43.9422 108.9632 15.08815693  1306","TLE_LINE1":"1 52840U 22062L   22264.91667824  .00020084  00000-0  12772-2 0  9995","REV_AT_EPOCH":"130","ECCENTRICITY":"0.00018380","MEAN_MOTION_DDOT":"0.0000000000000","APOAPSIS":"541.091","EPOCH":"2022-09-21T22:00:00.999936","PERIOD":"95.439","LAUNCH_DATE":"2022-06-17","SEMIMAJOR_AXIS":"6917.955","MEAN_ELEMENT_THEORY":"SGP4","MEAN_ANOMALY":"108.9632","COUNTRY_CODE":"US","INCLINATION":"53.2192","MEAN_MOTION_DOT":"0.00020084","CENTER_NAME":"EARTH","RA_OF_ASC_NODE":"311.9079","NORAD_CAT_ID":"52840","FILE":"3579752","MEAN_MOTION":"15.08815693","REF_FRAME":"TEME","EPHEMERIS_TYPE":"0"},{"TLE_LINE2":"2 52841  53.2202 311.9046 0002057  35.8774 196.9886 15.08823012  1309","SITE":"AFETR","TIME_SYSTEM":"UTC","ELEMENT_SET_NO":"999","RCS_SIZE":"LARGE","OBJECT_TYPE":"PAYLOAD","PERIAPSIS":"538.374","DECAY_DATE":null,"CLASSIFICATION_TYPE":"U","OBJECT_NAME":"STARLINK-4065","ARG_OF_PERICENTER":"35.8774","BSTAR":"0.00133050000000","GP_ID":"213193374","OBJECT_ID":"2022-062M","EPHEMERIS_TYPE":"0","REF_FRAME":"TEME","FILE":"3579752","MEAN_MOTION":"15.08823012","NORAD_CAT_ID":"52841","CENTER_NAME":"EARTH","MEAN_MOTION_DOT":"0.00020941","RA_OF_ASC_NODE":"311.9046","COUNTRY_CODE":"US","INCLINATION":"53.2202","SEMIMAJOR_AXIS":"6917.932","MEAN_ANOMALY":"196.9886","MEAN_ELEMENT_THEORY":"SGP4","LAUNCH_DATE":"2022-06-17","EPOCH":"2022-09-21T22:00:00.999936","PERIOD":"95.439","APOAPSIS":"541.220","MEAN_MOTION_DDOT":"0.0000000000000","REV_AT_EPOCH":"130","TLE_LINE1":"1 52841U 22062M   22264.91667824  .00020941  00000-0  13305-2 0  9991","ECCENTRICITY":"0.00020570"},{"DECAY_DATE":null,"OBJECT_NAME":"STARLINK-4046","CLASSIFICATION_TYPE":"U","OBJECT_ID":"2022-062N","GP_ID":"213194322","BSTAR":"0.00130630000000","ARG_OF_PERICENTER":"43.0271","PERIAPSIS":"538.434","RCS_SIZE":"LARGE","OBJECT_TYPE":"PAYLOAD","TLE_LINE2":"2 52842  53.2186 311.9138 0001939  43.0271  69.8463 15.08830304  1305","ELEMENT_SET_NO":"999","SITE":"AFETR","TIME_SYSTEM":"UTC","APOAPSIS":"541.116","ECCENTRICITY":"0.00019390","REV_AT_EPOCH":"130","TLE_LINE1":"1 52842U 22062N   22264.91667824  .00020557  00000-0  13063-2 0  9996","MEAN_MOTION_DDOT":"0.0000000000000","MEAN_ELEMENT_THEORY":"SGP4","SEMIMAJOR_AXIS":"6917.910","MEAN_ANOMALY":"69.8463","INCLINATION":"53.2186","COUNTRY_CODE":"US","PERIOD":"95.438","EPOCH":"2022-09-21T22:00:00.999936","LAUNCH_DATE":"2022-06-17","REF_FRAME":"TEME","EPHEMERIS_TYPE":"0","RA_OF_ASC_NODE":"311.9138","CENTER_NAME":"EARTH","MEAN_MOTION_DOT":"0.00020557","MEAN_MOTION":"15.08830304","FILE":"3579752","NORAD_CAT_ID":"52842"},{"APOAPSIS":"541.087","REV_AT_EPOCH":"130","TLE_LINE1":"1 52843U 22062P   22264.91667824  .00013955  00000-0  89356-3 0  9990","ECCENTRICITY":"0.00018660","MEAN_MOTION_DDOT":"0.0000000000000","REF_FRAME":"TEME","EPHEMERIS_TYPE":"0","MEAN_MOTION_DOT":"0.00013955","CENTER_NAME":"EARTH","RA_OF_ASC_NODE":"311.8999","FILE":"3579752","NORAD_CAT_ID":"52843","MEAN_MOTION":"15.08823275","SEMIMAJOR_AXIS":"6917.932","MEAN_ELEMENT_THEORY":"SGP4","MEAN_ANOMALY":"236.6240","COUNTRY_CODE":"US","INCLINATION":"53.2187","PERIOD":"95.439","EPOCH":"2022-09-21T22:00:00.999936","LAUNCH_DATE":"2022-06-17","PERIAPSIS":"538.506","DECAY_DATE":null,"CLASSIFICATION_TYPE":"U","OBJECT_NAME":"STARLINK-4188","GP_ID":"213193526","OBJECT_ID":"2022-062P","ARG_OF_PERICENTER":"36.2968","BSTAR":"0.00089356000000","TLE_LINE2":"2 52843  53.2187 311.8999 0001866  36.2968 236.6240 15.08823275  1303","SITE":"AFETR","TIME_SYSTEM":"UTC","ELEMENT_SET_NO":"999","RCS_SIZE":"LARGE","OBJECT_TYPE":"PAYLOAD"}];
